{
  "norad_id": 58435,
  "name": "COSMOS 2572",
  "history": [
    {
      "epoch": "2026-03-28T10:35:17.401632Z",
      "apogee_km": 314.0854088209908,
      "perigee_km": 289.99108553246424,
      "latitude_deg": 5.100687174129067e-06,
      "longitude_deg": -151.87138371342587,
      "height_km": 317.08828492204094,
      "semi_major_axis_km": 6680.175247176728,
      "eccentricity": 0.00180342,
      "inclination_deg": 96.6777,
      "raan_deg": 192.8127,
      "arg_perigee_deg": 190.6963,
      "mean_anomaly_deg": 169.3931,
      "mean_motion_rev_day": 15.90087334
    }
  ]
}